GLOBALSTAR M001         
1 25162U 98008A   25100.89686562 -.00000059  00000+0  28878-3 0  9999
2 25162  52.0018 169.0789 0001866 117.1036  57.6358 12.38212167235483
GLOBALSTAR M004         
1 25163U 98008B   25101.16860522 -.00000079  00000+0  13954-3 0  9992
2 25163  51.9994 258.6088 0003766 135.4590  36.0278 12.63393469253318
GLOBALSTAR M002         
1 25164U 98008C   25101.81504580 -.00000065  00000+0  22515-3 0  9992
2 25164  52.0036  46.6169 0001714  30.0429 330.0490 11.61508911176421
GLOBALSTAR M003         
1 25165U 98008D   25101.43049403 -.00000080  00000+0  10229-3 0  9995
2 25165  52.0036 353.4089 0008169 154.5424  16.6690 12.12076266225211
GLOBALSTAR M014         
1 25306U 98023A   25101.42553102 -.00000050  00000+0  51936-3 0  9991
2 25306  51.9863 332.2281 0000469 190.6793 340.5412 11.65479265183372
GLOBALSTAR M006         
1 25307U 98023B   25101.75489823 -.00000051  00000+0  50750-3 0  9990
2 25307  51.9977  21.3812 0003464 352.6515  46.0648 11.58173982209248
GLOBALSTAR M015         
1 25308U 98023C   25101.42392494 -.00000035  00000+0  86565-3 0  9997
2 25308  51.9789 117.6175 0012481 316.7412 189.0629 11.48858437186781
GLOBALSTAR M008         
1 25309U 98023D   25101.12146244 -.00000090  00000+0  46079-4 0  9993
2 25309  51.9994  32.4926 0003082  40.1726  39.6384 12.36066108229860
